*******************************************************************************
JPL/HORIZONS              739 Mandeville (A913 CH)         2020-Jun-22 09:27:04
Rec #:     739 (+COV) Soln.date: 2020-Feb-22_15:35:41   # obs: 2740 (1918-2020)
 
IAU76/J2000 helio. ecliptic osc. elements (au, days, deg., period=Julian yrs):
 
  EPOCH=  2455806.5 ! 2011-Sep-02.00 (TDB)         Residual RMS= .29194
   EC= .1423600311589026   QR= 2.349137513643289   TP= 2456326.8418296636
   OM= 136.6542071953219   W=  45.00922457562689   IN= 20.65390283522292
   A= 2.73907187046985     MA= 246.8674250869582   ADIST= 3.129006227296412
   PER= 4.53329            N= .217419714           ANGMOM= .028179752
   DAN= 2.43817            DDN= 2.98388            L= 179.7617212
   B= 14.4451081           MOID= 1.39265001        TP= 2013-Feb-03.3418296636
 
Asteroid physical parameters (km, seconds, rotational period in hours):
   GM= n.a.                RAD= 52.2585            ROTPER= 11.931
   H= 8.7                  G= .150                 B-V= .720
                           ALBEDO= .051            STYP= X
 
ASTEROID comments: 
1: soln ref.= JPL#51, OCC=0
2: source=ORB
*******************************************************************************
 
 
*******************************************************************************
Ephemeris / WWW_USER Mon Jun 22 09:27:04 2020 Pasadena, USA      / Horizons
*******************************************************************************
Target body name: 739 Mandeville (A913 CH)        {source: JPL#51}
Center body name: Solar System Barycenter (0)     {source: DE431}
Center-site name: BODY CENTER
*******************************************************************************
Start time      : A.D. 1969-Jun-28 00:00:00.0000 TDB
Stop  time      : A.D. 2071-May-04 00:00:00.0000 TDB
Step-size       : 7200 minutes
*******************************************************************************
Center geodetic : 0.00000000,0.00000000,0.0000000 {E-lon(deg),Lat(deg),Alt(km)}
Center cylindric: 0.00000000,0.00000000,0.0000000 {E-lon(deg),Dxy(km),Dz(km)}
Center radii    : (undefined)                                                  
Small perturbers: Yes                             {source: SB431-N16}
Output units    : AU-D
Output type     : GEOMETRIC cartesian states
Output format   : 2 (position and velocity)
Reference frame : Ecliptic of J2000.0
*******************************************************************************
Initial IAU76/J2000 heliocentric ecliptic osculating elements (au, days, deg.):
  EPOCH=  2455806.5 ! 2011-Sep-02.00 (TDB)         Residual RMS= .29194        
   EC= .1423600311589026   QR= 2.349137513643289   TP= 2456326.8418296636      
   OM= 136.6542071953219   W=  45.00922457562689   IN= 20.65390283522292       
  Equivalent ICRF heliocentric equatorial cartesian coordinates (au, au/d):
   X= 1.570050090600763E+00  Y= 2.479529025436725E+00  Z=-4.242375935656550E-02
  VX=-8.410151646853129E-03 VY= 3.958317124338108E-03 VZ= 2.683827283556026E-03
Asteroid physical parameters (km, seconds, rotational period in hours):        
   GM= n.a.                RAD= 52.2585            ROTPER= 11.931              
   H= 8.7                  G= .150                 B-V= .720                   
                           ALBEDO= .051            STYP= X                     
*******************************************************************************
            JDTDB,            Calendar Date (TDB),        delta-T,                      X,                      Y,                      Z,                     VX,                     VY,                     VZ,
******************************************************************************************************************************************************************************************************************
$$SOE
2444040.500000000, A.D. 1979-Jun-16 00:00:00.0000,      50.184513,  2.763439862970706E+00,  1.009792359986195E+00, -9.886093984206180E-01, -3.994661149275215E-03,  8.093009802627987E-03, -1.213718562203577E-03,
2444045.500000000, A.D. 1979-Jun-21 00:00:00.0000,      50.184380,  2.743124180766712E+00,  1.050129789933272E+00, -9.945546848089496E-01, -4.131502605568089E-03,  8.041605048010698E-03, -1.164325063534842E-03,
2444050.500000000, A.D. 1979-Jun-26 00:00:00.0000,      50.184245,  2.722125948547233E+00,  1.090204836360881E+00, -1.000251944210230E+00, -4.267677070962859E-03,  7.988055828077533E-03, -1.114508659812332E-03,
2444055.500000000, A.D. 1979-Jul-01 00:00:00.0000,      50.184108,  2.700448562827124E+00,  1.130006768391497E+00, -1.005699075546780E+00, -4.403159862297987E-03,  7.932358712835354E-03, -1.064274742496916E-03,
2444060.500000000, A.D. 1979-Jul-06 00:00:00.0000,      50.183969,  2.678095544433898E+00,  1.169524837860650E+00, -1.010894004889524E+00, -4.537925935342313E-03,  7.874510218960707E-03, -1.013628780562416E-03,
2444065.500000000, A.D. 1979-Jul-11 00:00:00.0000,      50.183829,  2.655070540348159E+00,  1.208748279072507E+00, -1.015834685860657E+00, -4.671949870733503E-03,  7.814506818757843E-03, -9.625763265749154E-04,
2444070.500000000, A.D. 1979-Jul-16 00:00:00.0000,      50.183691,  2.631377325614740E+00,  1.247666308601236E+00, -1.020519100067241E+00, -4.805205859764361E-03,  7.752344949515728E-03, -9.111230229785219E-04,
2444075.500000000, A.D. 1979-Jul-21 00:00:00.0000,      50.183557,  2.607019805325144E+00,  1.286268125140173E+00, -1.024945257566663E+00, -4.937667690085724E-03,  7.688021023275830E-03, -8.592746085450520E-04,
2444080.500000000, A.D. 1979-Jul-26 00:00:00.0000,      50.183426,  2.582002016671589E+00,  1.324542909400925E+00, -1.029111197364690E+00, -5.069308731371994E-03,  7.621531437048191E-03, -8.070369249645312E-04,
2444085.500000000, A.D. 1979-Jul-31 00:00:00.0000,      50.183300,  2.556328131072744E+00,  1.362479824064778E+00, -1.033014987946810E+00, -5.200101920977990E-03,  7.552872583523748E-03, -7.544159235680215E-04,
2444090.500000000, A.D. 1979-Aug-05 00:00:00.0000,      50.183177,  2.530002456371184E+00,  1.400068013789018E+00, -1.036654727843545E+00, -5.330019749591599E-03,  7.482040862336794E-03, -7.014176721934230E-04,
2444095.500000000, A.D. 1979-Aug-10 00:00:00.0000,      50.183058,  2.503029439102647E+00,  1.437296605271033E+00, -1.040028546230483E+00, -5.459034246864882E-03,  7.409032691922389E-03, -6.480483622197355E-04,
2444100.500000000, A.D. 1979-Aug-15 00:00:00.0000,      50.182947,  2.475413666837235E+00,  1.474154707373239E+00, -1.043134603563994E+00, -5.587116966986431E-03,  7.333844521980387E-03, -5.943143158039367E-04,
2444105.500000000, A.D. 1979-Aug-20 00:00:00.0000,      50.182846,  2.447159870592959E+00,  1.510631411311683E+00, -1.045971092253636E+00, -5.714238974187831E-03,  7.256472846463784E-03, -5.402219933150798E-04,
2444110.500000000, A.D. 1979-Aug-25 00:00:00.0000,      50.182753,  2.418272927321611E+00,  1.546715790910624E+00, -1.048536237371976E+00, -5.840370828356299E-03,  7.176914216974772E-03, -4.857780008283036E-04,
2444115.500000000, A.D. 1979-Aug-30 00:00:00.0000,      50.182668,  2.388757862465644E+00,  1.582396902925360E+00, -1.050828297401637E+00, -5.965482571040436E-03,  7.095165256728565E-03, -4.309890975249647E-04,
2444120.500000000, A.D. 1979-Sep-04 00:00:00.0000,      50.182592,  2.358619852584283E+00,  1.617663787437454E+00, -1.052845565019570E+00, -6.089543711671089E-03,  7.011222675636134E-03, -3.758622032527353E-04,
2444125.500000000, A.D. 1979-Sep-09 00:00:00.0000,      50.182525,  2.327864228049271E+00,  1.652505468328283E+00, -1.054586367920413E+00, -6.212523213407568E-03,  6.925083286464379E-03, -3.204044066384308E-04,
2444130.500000000, A.D. 1979-Sep-14 00:00:00.0000,      50.182470,  2.296496475812342E+00,  1.686910953834922E+00, -1.056049069681551E+00, -6.334389478696053E-03,  6.836744021542475E-03, -2.646229735755672E-04,
2444135.500000000, A.D. 1979-Sep-19 00:00:00.0000,      50.182427,  2.264522242244542E+00,  1.720869237190670E+00, -1.057232070670794E+00, -6.455110335013299E-03,  6.746201949950670E-03, -2.085253557678602E-04,
2444140.500000000, A.D. 1979-Sep-24 00:00:00.0000,      50.182396,  2.231947336046142E+00,  1.754369297353295E+00, -1.058133808996920E+00, -6.574653020877898E-03,  6.653454295458365E-03, -1.521191993482698E-04,
2444145.500000000, A.D. 1979-Sep-29 00:00:00.0000,      50.182377,  2.198777731226050E+00,  1.787400099825143E+00, -1.058752761503741E+00, -6.692984172019964E-03,  6.558498455336509E-03, -9.541235368192370E-05,
2444150.500000000, A.D. 1979-Oct-04 00:00:00.0000,      50.182368,  2.165019570150107E+00,  1.819950597569526E+00, -1.059087444808733E+00, -6.810069807658395E-03,  6.461332020056685E-03, -3.841288039460564E-05,
2444155.500000000, A.D. 1979-Oct-09 00:00:00.0000,      50.182370,  2.130679166657713E+00,  1.852009732027804E+00, -1.059136416387385E+00, -6.925875316894758E-03,  6.361952793871977E-03,  1.887093737502679E-05,
2444160.500000000, A.D. 1979-Oct-14 00:00:00.0000,      50.182385,  2.095763009246129E+00,  1.883566434241604E+00, -1.058898275704335E+00, -7.040365445253939E-03,  6.260358816286528E-03,  7.643058551295050E-05,
2444165.500000000, A.D. 1979-Oct-19 00:00:00.0000,      50.182414,  2.060277764321628E+00,  1.914609626084614E+00, -1.058371665392303E+00, -7.153504281409968E-03,  6.156548384427997E-03,  1.342573092746969E-04,
2444170.500000000, A.D. 1979-Oct-24 00:00:00.0000,      50.182456,  2.024230279516475E+00,  1.945128221608565E+00, -1.057555272479754E+00, -7.265255244141946E-03,  6.050520076346969E-03,  1.923421034556374E-04,
2444175.500000000, A.D. 1979-Oct-29 00:00:00.0000,      50.182508,  1.987627587070429E+00,  1.975111128508086E+00, -1.056447829668105E+00, -7.375581069570155E-03,  5.942272775278268E-03,  2.506757024020892E-04,
